NORAD_CAT_ID,OBJECT_NAME,OBJECT_TYPE,EPOCH,MEAN_MOTION,ECCENTRICITY,INCLINATION,RA_OF_ASC_NODE,ARG_OF_PERICENTER,MEAN_ANOMALY,BSTAR,MEAN_MOTION_DOT,MEAN_MOTION_DDOT,TLE_LINE0,TLE_LINE1,TLE_LINE2,SEMIMAJOR_AXIS,PERIOD,APOGEE,PERIGEE,DECAYED
53257.0,STARLINK-4144,PAYLOAD,2023-05-05 20:05:29,15.08837253,0.0001006,53.2161,177.7123,84.7593,275.3514,0.00010376,1.364e-05,0.0,0 STARLINK-4144,1 53257U 22086R   23125.83714404  .00001364  00000-0  10376-3 0  9998,2 53257  53.2161 177.7123 0001006  84.7593 275.3514 15.08837253 44055,6917.889,95.438,540.45,539.058,0.0
53257.0,STARLINK-4144,PAYLOAD,2023-05-06 11:59:20,15.08844408,0.0001135,53.2161,174.7393,90.8504,269.2618,0.00011374,1.523e-05,0.0,0 STARLINK-4144,1 53257U 22086R   23126.49954160  .00001523  00000-0  11374-3 0  9992,2 53257  53.2161 174.7393 0001135  90.8504 269.2618 15.08844408 44332,6917.867,95.437,540.517,538.947,0.0
53257.0,STARLINK-4144,PAYLOAD,2023-05-07 03:53:11,15.08843347,0.0001005,53.2158,171.7653,86.212,273.8987,9.8198e-05,1.276e-05,0.0,0 STARLINK-4144,1 53257U 22086R   23127.16194242  .00001276  00000-0  98198-4 0  9999,2 53257  53.2158 171.7653 0001005  86.2120 273.8987 15.08843347 44255,6917.87,95.437,540.43,539.04,0.0
53257.0,STARLINK-4144,PAYLOAD,2023-05-07 10:14:43,15.08846779,0.0001032,53.215,170.576,86.4038,273.7072,0.00011463,1.537e-05,0.0,0 STARLINK-4144,1 53257U 22086R   23127.42689811  .00001537  00000-0  11463-3 0  9998,2 53257  53.2150 170.5760 0001032  86.4038 273.7072 15.08846779 44473,6917.86,95.437,540.439,539.011,0.0
53257.0,STARLINK-4144,PAYLOAD,2023-05-08 10:05:32,15.08828395,0.0001109,53.2163,166.1157,95.0489,265.063,0.00011684,1.572e-05,0.0,0 STARLINK-4144,1 53257U 22086R   23128.42051310  .00001572  00000-0  11684-3 0  9990,2 53257  53.2163 166.1157 0001109  95.0489 265.0630 15.08828395 44444,6917.916,95.438,540.548,539.014,0.0
53257.0,STARLINK-4144,PAYLOAD,2023-05-08 19:37:50,15.08837853,0.000114,53.2161,164.3313,93.5613,266.5509,4.9453e-05,4.99e-06,0.0,0 STARLINK-4144,1 53257U 22086R   23128.81794856  .00000499  00000-0  49453-4 0  9995,2 53257  53.2161 164.3313 0001140  93.5613 266.5509 15.08837853 44500,6917.887,95.438,540.541,538.963,0.0
53257.0,STARLINK-4144,PAYLOAD,2023-05-09 09:56:18,15.08845422,0.0001176,53.2161,161.655,91.8739,268.2388,8.6324e-05,1.086e-05,0.0,0 STARLINK-4144,1 53257U 22086R   23129.41410283  .00001086  00000-0  86324-4 0  9992,2 53257  53.2161 161.6550 0001176  91.8739 268.2388 15.08845422 44776,6917.864,95.437,540.542,538.915,0.0
53257.0,STARLINK-4144,PAYLOAD,2023-05-10 08:11:42,15.0883918,0.0001262,53.2165,157.4911,90.7245,269.3892,0.00011286,1.509e-05,0.0,0 STARLINK-4144,1 53257U 22086R   23130.34146903  .00001509  00000-0  11286-3 0  9995,2 53257  53.2165 157.4911 0001262  90.7245 269.3892 15.08839180 44912,6917.883,95.438,540.621,538.875,0.0
53257.0,STARLINK-4144,PAYLOAD,2023-05-10 19:19:24,15.08841843,0.0001266,53.2165,155.4099,89.4302,270.6836,0.00011356,1.52e-05,0.0,0 STARLINK-4144,1 53257U 22086R   23130.80514784  .00001520  00000-0  11356-3 0  9993,2 53257  53.2165 155.4099 0001266  89.4302 270.6836 15.08841843 44989,6917.875,95.437,540.616,538.864,0.0
53257.0,STARLINK-4144,PAYLOAD,2023-05-11 08:02:29,15.08845473,0.0001313,53.2164,153.0311,85.9113,274.203,7.5316e-05,9.11e-06,0.0,0 STARLINK-4144,1 53257U 22086R   23131.33506553  .00000911  00000-0  75316-4 0  9997,2 53257  53.2164 153.0311 0001313  85.9113 274.2030 15.08845473 44881,6917.864,95.437,540.637,538.82,0.0
53257.0,STARLINK-4144,PAYLOAD,2023-05-11 23:56:21,15.0883747,0.0001227,53.2159,150.0576,85.0078,275.1054,5.9874e-05,6.65e-06,0.0,0 STARLINK-4144,1 53257U 22086R   23131.99747032  .00000665  00000-0  59874-4 0  9995,2 53257  53.2159 150.0576 0001227  85.0078 275.1054 15.08837470 44985,6917.888,95.438,540.602,538.904,0.0
53257.0,STARLINK-4144,PAYLOAD,2023-05-12 04:42:31,15.08835801,0.000123,53.216,149.1653,86.0608,274.0525,4.0016e-05,3.49e-06,0.0,0 STARLINK-4144,1 53257U 22086R   23132.19619231  .00000349  00000-0  40016-4 0  9994,2 53257  53.2160 149.1653 0001230  86.0608 274.0525 15.08835801 45197,6917.893,95.438,540.609,538.907,0.0
53257.0,STARLINK-4144,PAYLOAD,2023-05-12 07:53:17,15.08836552,0.0001206,53.216,148.5708,86.0558,274.0572,2.5916e-05,1.25e-06,0.0,0 STARLINK-4144,1 53257U 22086R   23132.32867224  .00000125  00000-0  25916-4 0  9990,2 53257  53.2160 148.5708 0001206  86.0558 274.0572 15.08836552 45217,6917.891,95.438,540.59,538.922,0.0
53257.0,STARLINK-4144,PAYLOAD,2023-05-13 06:08:40,15.08842165,0.0001212,53.216,144.4079,84.6665,275.4465,4.9564e-05,5.01e-06,0.0,0 STARLINK-4144,1 53257U 22086R   23133.25602821  .00000501  00000-0  49564-4 0  9996,2 53257  53.2160 144.4079 0001212  84.6665 275.4465 15.08842165 45171,6917.874,95.437,540.577,538.9,0.0
53257.0,STARLINK-4144,PAYLOAD,2023-05-13 17:16:22,15.08838322,0.0001195,53.2157,142.3259,84.2759,275.8369,3.6016e-05,2.85e-06,0.0,0 STARLINK-4144,1 53257U 22086R   23133.71971064  .00000285  00000-0  36016-4 0  9992,2 53257  53.2157 142.3259 0001195  84.2759 275.8369 15.08838322 45429,6917.886,95.438,540.577,538.924,0.0
53257.0,STARLINK-4144,PAYLOAD,2023-05-14 05:59:28,15.08831244,0.0001205,53.2165,139.9487,96.1768,263.9362,3.9113e-05,3.35e-06,0.0,0 STARLINK-4144,1 53257U 22086R   23134.24963697  .00000335  00000-0  39113-4 0  9991,2 53257  53.2165 139.9487 0001205  96.1768 263.9362 15.08831244 45323,6917.907,95.438,540.606,538.939,0.0
53257.0,STARLINK-4144,PAYLOAD,2023-05-14 07:34:51,15.08831583,0.0001201,53.2165,139.6514,95.5766,264.5363,4.032e-05,3.54e-06,0.0,0 STARLINK-4144,1 53257U 22086R   23134.31587704  .00000354  00000-0  40320-4 0  9993,2 53257  53.2165 139.6514 0001201  95.5766 264.5363 15.08831583 45513,6917.906,95.438,540.602,538.94,0.0
53257.0,STARLINK-4144,PAYLOAD,2023-05-14 17:07:10,15.08834387,0.0001245,53.2169,137.8676,98.2247,261.8887,2.7335e-05,1.47e-06,0.0,0 STARLINK-4144,1 53257U 22086R   23134.71331692  .00000147  00000-0  27335-4 0  9991,2 53257  53.2169 137.8676 0001245  98.2247 261.8887 15.08834387 45570,6917.898,95.438,540.624,538.901,0.0
53257.0,STARLINK-4144,PAYLOAD,2023-05-15 05:50:15,15.08839517,0.0001173,53.2165,135.4876,96.0675,264.0451,3.8285e-05,3.22e-06,0.0,0 STARLINK-4144,1 53257U 22086R   23135.24323393  .00000322  00000-0  38285-4 0  9990,2 53257  53.2165 135.4876 0001173  96.0675 264.0451 15.08839517 45474,6917.882,95.438,540.558,538.935,0.0
53257.0,STARLINK-4144,PAYLOAD,2023-05-15 10:36:24,15.08840939,0.0001172,53.2163,134.5948,94.1469,265.9657,4.6308e-05,4.49e-06,0.0,0 STARLINK-4144,1 53257U 22086R   23135.44195278  .00000449  00000-0  46308-4 0  9996,2 53257  53.2163 134.5948 0001172  94.1469 265.9657 15.08840939 45682,6917.878,95.437,540.553,538.932,0.0
53257.0,STARLINK-4144,PAYLOAD,2023-05-15 16:57:57,15.08838016,0.0001164,53.2165,133.4049,93.7485,266.3641,4.6895e-05,4.59e-06,0.0,0 STARLINK-4144,1 53257U 22086R   23135.70691472  .00000459  00000-0  46895-4 0  9994,2 53257  53.2165 133.4049 0001164  93.7485 266.3641 15.08838016 45724,6917.886,95.438,540.557,538.946,0.0
53257.0,STARLINK-4144,PAYLOAD,2023-05-16 08:51:48,15.08840063,0.0001137,53.2165,130.4305,92.6313,267.4809,8.7613e-05,1.107e-05,0.0,0 STARLINK-4144,1 53257U 22086R   23136.36931358  .00001107  00000-0  87613-4 0  9991,2 53257  53.2165 130.4305 0001137  92.6313 267.4809 15.08840063 45648,6917.88,95.438,540.532,538.959,0.0
53257.0,STARLINK-4144,PAYLOAD,2023-05-16 16:48:44,15.08837141,0.0001145,53.2165,128.9438,92.0989,268.0134,5.3526e-05,5.64e-06,0.0,0 STARLINK-4144,1 53257U 22086R   23136.70051654  .00000564  00000-0  53526-4 0  9993,2 53257  53.2165 128.9438 0001145  92.0989 268.0134 15.08837141 45875,6917.889,95.438,540.546,538.962,0.0
53257.0,STARLINK-4144,PAYLOAD,2023-05-17 16:39:31,15.08839057,0.0001195,53.2169,124.4834,91.6614,268.4515,2.7956e-05,1.57e-06,0.0,0 STARLINK-4144,1 53257U 22086R   23137.69411647  .00000157  00000-0  27956-4 0  9990,2 53257  53.2169 124.4834 0001195  91.6614 268.4515 15.08839057 45847,6917.883,95.438,540.575,538.922,0.0
53257.0,STARLINK-4144,PAYLOAD,2023-05-18 05:22:36,15.08840557,0.0001202,53.2166,122.105,91.6861,268.4269,3.0581e-05,1.99e-06,0.0,0 STARLINK-4144,1 53257U 22086R   23138.22403545  .00000199  00000-0  30581-4 0  9992,2 53257  53.2166 122.1050 0001202  91.6861 268.4269 15.08840557 46105,6917.879,95.438,540.575,538.912,0.0
53257.0,STARLINK-4144,PAYLOAD,2023-05-18 22:51:51,15.08836386,0.0001191,53.2165,118.8342,91.0795,269.0334,2.4709e-05,1.05e-06,0.0,0 STARLINK-4144,1 53257U 22086R   23138.95267879  .00000105  00000-0  24709-4 0  9992,2 53257  53.2165 118.8342 0001191  91.0795 269.0334 15.08836386 46214,6917.891,95.438,540.58,538.933,0.0
53257.0,STARLINK-4144,PAYLOAD,2023-05-19 02:02:37,15.08836476,0.0001191,53.2165,118.2395,91.0488,269.0641,2.417e-05,9.7e-07,0.0,0 STARLINK-4144,1 53257U 22086R   23139.08515893  .00000097  00000-0  24170-4 0  9991,2 53257  53.2165 118.2395 0001191  91.0488 269.0641 15.08836476 46058,6917.891,95.438,540.58,538.932,0.0
53257.0,STARLINK-4144,PAYLOAD,2023-05-19 08:24:10,15.08839193,0.0001209,53.2166,117.05,92.1348,267.9783,3.5839e-05,2.83e-06,0.0,0 STARLINK-4144,1 53257U 22086R   23139.35011718  .00000283  00000-0  35839-4 0  9999,2 53257  53.2166 117.0500 0001209  92.1348 267.9783 15.08839193 46278,6917.883,95.438,540.584,538.911,0.0
53257.0,STARLINK-4144,PAYLOAD,2023-05-20 05:04:10,15.08843565,0.0001187,53.2163,113.1844,89.6561,270.4567,6.6303e-05,7.68e-06,0.0,0 STARLINK-4144,1 53257U 22086R   23140.21123438  .00000768  00000-0  66303-4 0  9997,2 53257  53.2163 113.1844 0001187  89.6561 270.4567 15.08843565 46228,6917.869,95.437,540.556,538.913,0.0
53257.0,STARLINK-4144,PAYLOAD,2023-05-20 08:14:56,15.08845166,0.0001196,53.2161,112.5894,89.6479,270.465,7.7154e-05,9.4e-06,0.0,0 STARLINK-4144,1 53257U 22086R   23140.34371276  .00000940  00000-0  77154-4 0  9994,2 53257  53.2161 112.5894 0001196  89.6479 270.4650 15.08845166 46426,6917.865,95.437,540.557,538.902,0.0
